{
  "type": "FeatureCollection",
  "features": [
    {
      "type": "Feature",
      "properties": {
        "norad_id": 33805,
        "name": "COSMOS 2251 DEB",
        "group": "cosmos-2251-debris",
        "lat": 33.469298469549756,
        "lon": 139.14045833835357,
        "alt_km": 656.6838186120895,
        "timestamp": "2025-12-02T21:34:01.663301+00:00",
        "meta_object_name": "COSMOS 2251 DEB",
        "meta_object_id": "1993-036AW",
        "meta_epoch": "2025-12-02T09:22:33.429216",
        "meta_mean_motion": 14.57816479,
        "meta_eccentricity": 0.0060657,
        "meta_inclination": 74.0305,
        "meta_ra_of_asc_node": 331.0192,
        "meta_arg_of_pericenter": 162.8871,
        "meta_mean_anomaly": 197.4358,
        "meta_ephemeris_type": 0,
        "meta_classification_type": "U",
        "meta_norad_cat_id": 33805,
        "meta_element_set_no": 999,
        "meta_rev_at_epoch": 89076,
        "meta_bstar": 0.00032833,
        "meta_mean_motion_dot": 1.511e-05,
        "meta_mean_motion_ddot": 0,
        "tle_line1": "1 33805U 93036AW  25336.39066469  .00001511  00000+0  32833-3 0  9991",
        "tle_line2": "2 33805  74.0305 331.0192 0060657 162.8871 197.4358 14.57816479890765"
      },
      "geometry": {
        "type": "Point",
        "coordinates": [
          139.14045833835357,
          33.469298469549756
        ]
      }
    },
    {
      "type": "Feature",
      "properties": {
        "norad_id": 33811,
        "name": "COSMOS 2251 DEB",
        "group": "cosmos-2251-debris",
        "lat": 34.99824367784949,
        "lon": 131.34447667745087,
        "alt_km": 552.4783826920584,
        "timestamp": "2025-12-02T21:34:01.663311+00:00",
        "meta_object_name": "COSMOS 2251 DEB",
        "meta_object_id": "1993-036BC",
        "meta_epoch": "2025-12-02T10:28:15.323808",
        "meta_mean_motion": 15.04746255,
        "meta_eccentricity": 0.0030649,
        "meta_inclination": 73.8375,
        "meta_ra_of_asc_node": 324.018,
        "meta_arg_of_pericenter": 46.2412,
        "meta_mean_anomaly": 113.1447,
        "meta_ephemeris_type": 0,
        "meta_classification_type": "U",
        "meta_norad_cat_id": 33811,
        "meta_element_set_no": 999,
        "meta_rev_at_epoch": 89863,
        "meta_bstar": 0.0016893,
        "meta_mean_motion_dot": 0.00024105,
        "meta_mean_motion_ddot": 0,
        "tle_line1": "1 33811U 93036BC  25336.43628847  .00024105  00000+0  16893-2 0  9998",
        "tle_line2": "2 33811  73.8375 324.0180 0030649  46.2412 113.1447 15.04746255898634"
      },
      "geometry": {
        "type": "Point",
        "coordinates": [
          131.34447667745087,
          34.99824367784949
        ]
      }
    },
    {
      "type": "Feature",
      "properties": {
        "norad_id": 33815,
        "name": "COSMOS 2251 DEB",
        "group": "cosmos-2251-debris",
        "lat": 8.189629008464742,
        "lon": 14.823041783693132,
        "alt_km": 522.9064825726036,
        "timestamp": "2025-12-02T21:34:01.663322+00:00",
        "meta_object_name": "COSMOS 2251 DEB",
        "meta_object_id": "1993-036BG",
        "meta_epoch": "2025-12-02T08:54:02.101824",
        "meta_mean_motion": 15.14489448,
        "meta_eccentricity": 0.0004691,
        "meta_inclination": 73.9563,
        "meta_ra_of_asc_node": 198.2985,
        "meta_arg_of_pericenter": 247.7416,
        "meta_mean_anomaly": 287.2887,
        "meta_ephemeris_type": 0,
        "meta_classification_type": "U",
        "meta_norad_cat_id": 33815,
        "meta_element_set_no": 999,
        "meta_rev_at_epoch": 88213,
        "meta_bstar": 0.0061517,
        "meta_mean_motion_dot": 0.00115081,
        "meta_mean_motion_ddot": 0,
        "tle_line1": "1 33815U 93036BG  25336.37085766  .00115081  00000+0  61517-2 0  9999",
        "tle_line2": "2 33815  73.9563 198.2985 0004691 247.7416 287.2887 15.14489448882130"
      },
      "geometry": {
        "type": "Point",
        "coordinates": [
          14.823041783693132,
          8.189629008464742
        ]
      }
    },
    {
      "type": "Feature",
      "properties": {
        "norad_id": 33816,
        "name": "COSMOS 2251 DEB",
        "group": "cosmos-2251-debris",
        "lat": 61.388292178770826,
        "lon": -89.9096238128722,
        "alt_km": 771.3230471668503,
        "timestamp": "2025-12-02T21:34:01.663332+00:00",
        "meta_object_name": "COSMOS 2251 DEB",
        "meta_object_id": "1993-036BH",
        "meta_epoch": "2025-12-02T12:20:03.698880",
        "meta_mean_motion": 13.81758219,
        "meta_eccentricity": 0.0265355,
        "meta_inclination": 73.8935,
        "meta_ra_of_asc_node": 122.7266,
        "meta_arg_of_pericenter": 137.6408,
        "meta_mean_anomaly": 224.5543,
        "meta_ephemeris_type": 0,
        "meta_classification_type": "U",
        "meta_norad_cat_id": 33816,
        "meta_element_set_no": 999,
        "meta_rev_at_epoch": 84532,
        "meta_bstar": 0.00074314,
        "meta_mean_motion_dot": 1.017e-05,
        "meta_mean_motion_ddot": 0,
        "tle_line1": "1 33816U 93036BH  25336.51393170  .00001017  00000+0  74314-3 0  9990",
        "tle_line2": "2 33816  73.8935 122.7266 0265355 137.6408 224.5543 13.81758219845321"
      },
      "geometry": {
        "type": "Point",
        "coordinates": [
          -89.9096238128722,
          61.388292178770826
        ]
      }
    },
    {
      "type": "Feature",
      "properties": {
        "norad_id": 33818,
        "name": "COSMOS 2251 DEB",
        "group": "cosmos-2251-debris",
        "lat": -33.94016571248323,
        "lon": 17.643483205590684,
        "alt_km": 521.7853396123546,
        "timestamp": "2025-12-02T21:34:01.663343+00:00",
        "meta_object_name": "COSMOS 2251 DEB",
        "meta_object_id": "1993-036BK",
        "meta_epoch": "2025-12-02T06:51:48.050784",
        "meta_mean_motion": 15.11305119,
        "meta_eccentricity": 0.0029331,
        "meta_inclination": 74.0759,
        "meta_ra_of_asc_node": 187.829,
        "meta_arg_of_pericenter": 179.7011,
        "meta_mean_anomaly": 303.5901,
        "meta_ephemeris_type": 0,
        "meta_classification_type": "U",
        "meta_norad_cat_id": 33818,
        "meta_element_set_no": 999,
        "meta_rev_at_epoch": 89704,
        "meta_bstar": 0.0023095,
        "meta_mean_motion_dot": 0.00039484,
        "meta_mean_motion_ddot": 0,
        "tle_line1": "1 33818U 93036BK  25336.28597281  .00039484  00000+0  23095-2 0  9993",
        "tle_line2": "2 33818  74.0759 187.8290 0029331 179.7011 303.5901 15.11305119897042"
      },
      "geometry": {
        "type": "Point",
        "coordinates": [
          17.643483205590684,
          -33.94016571248323
        ]
      }
    },
    {
      "type": "Feature",
      "properties": {
        "norad_id": 33819,
        "name": "COSMOS 2251 DEB",
        "group": "cosmos-2251-debris",
        "lat": -70.71466409827836,
        "lon": 173.51823678196288,
        "alt_km": 854.1931491737678,
        "timestamp": "2025-12-02T21:34:01.663353+00:00",
        "meta_object_name": "COSMOS 2251 DEB",
        "meta_object_id": "1993-036BL",
        "meta_epoch": "2025-12-02T04:12:21.098880",
        "meta_mean_motion": 14.32161014,
        "meta_eccentricity": 0.00887308,
        "meta_inclination": 74.1798,
        "meta_ra_of_asc_node": 228.9526,
        "meta_arg_of_pericenter": 93.5544,
        "meta_mean_anomaly": 59.6789,
        "meta_ephemeris_type": 0,
        "meta_classification_type": "U",
        "meta_norad_cat_id": 33819,
        "meta_element_set_no": 999,
        "meta_rev_at_epoch": 87344,
        "meta_bstar": 0.00074767135,
        "meta_mean_motion_dot": 2.078e-05,
        "meta_mean_motion_ddot": 0,
        "tle_line1": "1 33819U 93036BL  25336.17524420  .00002078  00000+0  74767-3 0  9999",
        "tle_line2": "2 33819  74.1798 228.9526 0088730  93.5544  59.6789 14.32161014873445"
      },
      "geometry": {
        "type": "Point",
        "coordinates": [
          173.51823678196288,
          -70.71466409827836
        ]
      }
    },
    {
      "type": "Feature",
      "properties": {
        "norad_id": 33821,
        "name": "COSMOS 2251 DEB",
        "group": "cosmos-2251-debris",
        "lat": -71.488351800393,
        "lon": 104.83239884657347,
        "alt_km": 492.60059690253456,
        "timestamp": "2025-12-02T21:34:01.663363+00:00",
        "meta_object_name": "COSMOS 2251 DEB",
        "meta_object_id": "1993-036BN",
        "meta_epoch": "2025-12-02T12:28:16.395744",
        "meta_mean_motion": 15.2439638,
        "meta_eccentricity": 0.0054483,
        "meta_inclination": 74.03,
        "meta_ra_of_asc_node": 164.4272,
        "meta_arg_of_pericenter": 200.6476,
        "meta_mean_anomaly": 159.2524,
        "meta_ephemeris_type": 0,
        "meta_classification_type": "U",
        "meta_norad_cat_id": 33821,
        "meta_element_set_no": 999,
        "meta_rev_at_epoch": 74845,
        "meta_bstar": 0.0012281,
        "meta_mean_motion_dot": 0.0003149,
        "meta_mean_motion_ddot": 0,
        "tle_line1": "1 33821U 93036BN  25336.51963421  .00031490  00000+0  12281-2 0  9990",
        "tle_line2": "2 33821  74.0300 164.4272 0054483 200.6476 159.2524 15.24396380748455"
      },
      "geometry": {
        "type": "Point",
        "coordinates": [
          104.83239884657347,
          -71.488351800393
        ]
      }
    }
  ]
}